[{"OBJECT_NAME":"ONEWEB-0300","OBJECT_ID":"2021-075Q","EPOCH":"2026-02-16T22:54:32.903136","MEAN_MOTION":13.12442696,"ECCENTRICITY":0.0001676,"INCLINATION":87.8975,"RA_OF_ASC_NODE":14.5152,"ARG_OF_PERICENTER":72.6728,"MEAN_ANOMALY":287.4583,"EPHEMERIS_TYPE":0,"CLASSIFICATION_TYPE":"U","NORAD_CAT_ID":49089,"ELEMENT_SET_NO":999,"REV_AT_EPOCH":21943,"BSTAR":0.00049434,"MEAN_MOTION_DOT":1.91e-6,"MEAN_MOTION_DDOT":0},{"OBJECT_NAME":"ONEWEB-0301","OBJECT_ID":"2021-075R","EPOCH":"2026-02-16T22:31:21.534816","MEAN_MOTION":13.12443446,"ECCENTRICITY":0.0001566,"INCLINATION":87.8975,"RA_OF_ASC_NODE":14.5194,"ARG_OF_PERICENTER":74.3228,"MEAN_ANOMALY":285.8073,"EPHEMERIS_TYPE":0,"CLASSIFICATION_TYPE":"U","NORAD_CAT_ID":49090,"ELEMENT_SET_NO":999,"REV_AT_EPOCH":21879,"BSTAR":-0.00094305,"MEAN_MOTION_DOT":-3.27e-6,"MEAN_MOTION_DDOT":0},{"OBJECT_NAME":"ONEWEB-0302","OBJECT_ID":"2021-075S","EPOCH":"2026-02-16T22:11:49.918848","MEAN_MOTION":13.124421,"ECCENTRICITY":0.0002159,"INCLINATION":87.8972,"RA_OF_ASC_NODE":14.5303,"ARG_OF_PERICENTER":88.0931,"MEAN_ANOMALY":272.0445,"EPHEMERIS_TYPE":0,"CLASSIFICATION_TYPE":"U","NORAD_CAT_ID":49091,"ELEMENT_SET_NO":999,"REV_AT_EPOCH":21877,"BSTAR":-0.0013611,"MEAN_MOTION_DOT":-4.77e-6,"MEAN_MOTION_DDOT":0},{"OBJECT_NAME":"ONEWEB-0304","OBJECT_ID":"2021-075T","EPOCH":"2026-02-16T23:04:23.873088","MEAN_MOTION":13.17648672,"ECCENTRICITY":0.0002054,"INCLINATION":87.9124,"RA_OF_ASC_NODE":29.7465,"ARG_OF_PERICENTER":82.3774,"MEAN_ANOMALY":277.759,"EPHEMERIS_TYPE":0,"CLASSIFICATION_TYPE":"U","NORAD_CAT_ID":49092,"ELEMENT_SET_NO":999,"REV_AT_EPOCH":21774,"BSTAR":0.00012966,"MEAN_MOTION_DOT":6.3e-7,"MEAN_MOTION_DDOT":0},{"OBJECT_NAME":"ONEWEB-0305","OBJECT_ID":"2021-075U","EPOCH":"2026-02-16T22:54:40.633344","MEAN_MOTION":13.17648215,"ECCENTRICITY":0.0002216,"INCLINATION":87.9125,"RA_OF_ASC_NODE":29.7266,"ARG_OF_PERICENTER":77.5316,"MEAN_ANOMALY":282.6063,"EPHEMERIS_TYPE":0,"CLASSIFICATION_TYPE":"U","NORAD_CAT_ID":49093,"ELEMENT_SET_NO":999,"REV_AT_EPOCH":21777,"BSTAR":0.00023312,"MEAN_MOTION_DOT":1.03e-6,"MEAN_MOTION_DDOT":0},{"OBJECT_NAME":"ONEWEB-0308","OBJECT_ID":"2021-075V","EPOCH":"2026-02-16T22:02:04.746336","MEAN_MOTION":13.12442708,"ECCENTRICITY":0.0001896,"INCLINATION":87.8972,"RA_OF_ASC_NODE":14.5248,"ARG_OF_PERICENTER":83.9815,"MEAN_ANOMALY":276.153,"EPHEMERIS_TYPE":0,"CLASSIFICATION_TYPE":"U","NORAD_CAT_ID":49094,"ELEMENT_SET_NO":999,"REV_AT_EPOCH":21878,"BSTAR":-0.00035926,"MEAN_MOTION_DOT":-1.17e-6,"MEAN_MOTION_DDOT":0},{"OBJECT_NAME":"ONEWEB-0309","OBJECT_ID":"2021-075W","EPOCH":"2026-02-16T22:59:32.871840","MEAN_MOTION":13.17648347,"ECCENTRICITY":0.0002225,"INCLINATION":87.9124,"RA_OF_ASC_NODE":29.7403,"ARG_OF_PERICENTER":96.8151,"MEAN_ANOMALY":263.3234,"EPHEMERIS_TYPE":0,"CLASSIFICATION_TYPE":"U","NORAD_CAT_ID":49095,"ELEMENT_SET_NO":999,"REV_AT_EPOCH":21774,"BSTAR":0.00018211,"MEAN_MOTION_DOT":8.4e-7,"MEAN_MOTION_DDOT":0},{"OBJECT_NAME":"ONEWEB-0310","OBJECT_ID":"2021-075X","EPOCH":"2026-02-16T22:24:02.761920","MEAN_MOTION":13.12442846,"ECCENTRICITY":0.0001884,"INCLINATION":87.8966,"RA_OF_ASC_NODE":14.554,"ARG_OF_PERICENTER":84.429,"MEAN_ANOMALY":275.7053,"EPHEMERIS_TYPE":0,"CLASSIFICATION_TYPE":"U","NORAD_CAT_ID":49096,"ELEMENT_SET_NO":999,"REV_AT_EPOCH":21941,"BSTAR":-0.0010622,"MEAN_MOTION_DOT":-3.69e-6,"MEAN_MOTION_DDOT":0},{"OBJECT_NAME":"ONEWEB-0311","OBJECT_ID":"2021-075Y","EPOCH":"2026-02-16T23:09:16.007904","MEAN_MOTION":13.17648133,"ECCENTRICITY":0.0002088,"INCLINATION":87.9123,"RA_OF_ASC_NODE":29.7341,"ARG_OF_PERICENTER":76.0222,"MEAN_ANOMALY":284.1142,"EPHEMERIS_TYPE":0,"CLASSIFICATION_TYPE":"U","NORAD_CAT_ID":49097,"ELEMENT_SET_NO":999,"REV_AT_EPOCH":21779,"BSTAR":2.4399e-6,"MEAN_MOTION_DOT":1.4e-7,"MEAN_MOTION_DDOT":0},{"OBJECT_NAME":"ONEWEB-0312","OBJECT_ID":"2021-075Z","EPOCH":"2026-02-16T23:31:07.995360","MEAN_MOTION":13.17647746,"ECCENTRICITY":0.0002262,"INCLINATION":87.9113,"RA_OF_ASC_NODE":29.7505,"ARG_OF_PERICENTER":83.8148,"MEAN_ANOMALY":276.3241,"EPHEMERIS_TYPE":0,"CLASSIFICATION_TYPE":"U","NORAD_CAT_ID":49098,"ELEMENT_SET_NO":999,"REV_AT_EPOCH":21777,"BSTAR":-0.00014616,"MEAN_MOTION_DOT":-4.4e-7,"MEAN_MOTION_DDOT":0},{"OBJECT_NAME":"ONEWEB-0313","OBJECT_ID":"2021-075AA","EPOCH":"2026-02-16T23:38:13.636320","MEAN_MOTION":13.17647766,"ECCENTRICITY":0.0002052,"INCLINATION":87.9112,"RA_OF_ASC_NODE":29.7563,"ARG_OF_PERICENTER":82.3061,"MEAN_ANOMALY":277.8303,"EPHEMERIS_TYPE":0,"CLASSIFICATION_TYPE":"U","NORAD_CAT_ID":49099,"ELEMENT_SET_NO":999,"REV_AT_EPOCH":21776,"BSTAR":0.00014125,"MEAN_MOTION_DOT":6.8e-7,"MEAN_MOTION_DDOT":0},{"OBJECT_NAME":"ONEWEB-0314","OBJECT_ID":"2021-075AB","EPOCH":"2026-02-16T22:49:49.386720","MEAN_MOTION":13.1764916,"ECCENTRICITY":0.0002297,"INCLINATION":87.9124,"RA_OF_ASC_NODE":29.7239,"ARG_OF_PERICENTER":81.3303,"MEAN_ANOMALY":278.8089,"EPHEMERIS_TYPE":0,"CLASSIFICATION_TYPE":"U","NORAD_CAT_ID":49100,"ELEMENT_SET_NO":999,"REV_AT_EPOCH":21773,"BSTAR":0.00020093,"MEAN_MOTION_DOT":9.1e-7,"MEAN_MOTION_DDOT":0},{"OBJECT_NAME":"ONEWEB-0315","OBJECT_ID":"2021-075AC","EPOCH":"2026-02-16T21:45:00.717120","MEAN_MOTION":13.12443256,"ECCENTRICITY":0.0001958,"INCLINATION":87.8976,"RA_OF_ASC_NODE":14.5133,"ARG_OF_PERICENTER":71.5488,"MEAN_ANOMALY":288.5853,"EPHEMERIS_TYPE":0,"CLASSIFICATION_TYPE":"U","NORAD_CAT_ID":49101,"ELEMENT_SET_NO":999,"REV_AT_EPOCH":21939,"BSTAR":0.00055479,"MEAN_MOTION_DOT":2.12e-6,"MEAN_MOTION_DDOT":0},{"OBJECT_NAME":"ONEWEB-0316","OBJECT_ID":"2021-075AD","EPOCH":"2026-02-16T21:28:15.657024","MEAN_MOTION":13.18687455,"ECCENTRICITY":0.0001916,"INCLINATION":87.9223,"RA_OF_ASC_NODE":359.3468,"ARG_OF_PERICENTER":77.8804,"MEAN_ANOMALY":282.2543,"EPHEMERIS_TYPE":0,"CLASSIFICATION_TYPE":"U","NORAD_CAT_ID":49102,"ELEMENT_SET_NO":999,"REV_AT_EPOCH":22135,"BSTAR":4.7084e-5,"MEAN_MOTION_DOT":3.1e-7,"MEAN_MOTION_DDOT":0},{"OBJECT_NAME":"ONEWEB-0317","OBJECT_ID":"2021-075AE","EPOCH":"2026-02-16T21:49:53.611392","MEAN_MOTION":13.12441498,"ECCENTRICITY":0.0001922,"INCLINATION":87.8977,"RA_OF_ASC_NODE":14.5346,"ARG_OF_PERICENTER":103.4767,"MEAN_ANOMALY":256.6575,"EPHEMERIS_TYPE":0,"CLASSIFICATION_TYPE":"U","NORAD_CAT_ID":49103,"ELEMENT_SET_NO":999,"REV_AT_EPOCH":21941,"BSTAR":0.00015363,"MEAN_MOTION_DOT":6.8e-7,"MEAN_MOTION_DDOT":0},{"OBJECT_NAME":"ONEWEB-0318","OBJECT_ID":"2021-075AF","EPOCH":"2026-02-16T21:23:31.037280","MEAN_MOTION":13.18684322,"ECCENTRICITY":0.0001958,"INCLINATION":87.9237,"RA_OF_ASC_NODE":359.3376,"ARG_OF_PERICENTER":73.6986,"MEAN_ANOMALY":286.4362,"EPHEMERIS_TYPE":0,"CLASSIFICATION_TYPE":"U","NORAD_CAT_ID":49104,"ELEMENT_SET_NO":999,"REV_AT_EPOCH":22131,"BSTAR":-0.00016487,"MEAN_MOTION_DOT":-5.2e-7,"MEAN_MOTION_DDOT":0},{"OBJECT_NAME":"ONEWEB-0319","OBJECT_ID":"2021-075AG","EPOCH":"2026-02-16T23:11:41.590176","MEAN_MOTION":13.17648433,"ECCENTRICITY":0.0002044,"INCLINATION":87.911,"RA_OF_ASC_NODE":29.7481,"ARG_OF_PERICENTER":68.4108,"MEAN_ANOMALY":291.7241,"EPHEMERIS_TYPE":0,"CLASSIFICATION_TYPE":"U","NORAD_CAT_ID":49105,"ELEMENT_SET_NO":999,"REV_AT_EPOCH":21777,"BSTAR":-2.6984e-6,"MEAN_MOTION_DOT":1.2e-7,"MEAN_MOTION_DDOT":0},{"OBJECT_NAME":"ONEWEB-0323","OBJECT_ID":"2021-075AH","EPOCH":"2026-02-16T21:23:03.471360","MEAN_MOTION":13.12443921,"ECCENTRICITY":0.000232,"INCLINATION":87.8974,"RA_OF_ASC_NODE":14.5208,"ARG_OF_PERICENTER":68.6069,"MEAN_ANOMALY":291.5307,"EPHEMERIS_TYPE":0,"CLASSIFICATION_TYPE":"U","NORAD_CAT_ID":49106,"ELEMENT_SET_NO":999,"REV_AT_EPOCH":21877,"BSTAR":0.0011885,"MEAN_MOTION_DOT":4.4e-6,"MEAN_MOTION_DDOT":0},{"OBJECT_NAME":"ONEWEB-0329","OBJECT_ID":"2021-075AJ","EPOCH":"2026-02-16T23:23:49.988832","MEAN_MOTION":13.17647424,"ECCENTRICITY":0.0002076,"INCLINATION":87.9113,"RA_OF_ASC_NODE":29.7462,"ARG_OF_PERICENTER":83.2695,"MEAN_ANOMALY":276.8673,"EPHEMERIS_TYPE":0,"CLASSIFICATION_TYPE":"U","NORAD_CAT_ID":49107,"ELEMENT_SET_NO":999,"REV_AT_EPOCH":21775,"BSTAR":-0.00015914,"MEAN_MOTION_DOT":-4.9e-7,"MEAN_MOTION_DDOT":0},{"OBJECT_NAME":"ONEWEB-0330","OBJECT_ID":"2021-075AK","EPOCH":"2026-02-16T23:25:03.060768","MEAN_MOTION":13.17647202,"ECCENTRICITY":0.0002141,"INCLINATION":87.9111,"RA_OF_ASC_NODE":29.7541,"ARG_OF_PERICENTER":86.7317,"MEAN_ANOMALY":273.4059,"EPHEMERIS_TYPE":0,"CLASSIFICATION_TYPE":"U","NORAD_CAT_ID":49108,"ELEMENT_SET_NO":999,"REV_AT_EPOCH":21779,"BSTAR":-4.7947e-5,"MEAN_MOTION_DOT":-6.0e-8,"MEAN_MOTION_DDOT":0},{"OBJECT_NAME":"ONEWEB-0292","OBJECT_ID":"2021-083A","EPOCH":"2026-02-16T19:19:07.044960","MEAN_MOTION":13.13472588,"ECCENTRICITY":0.0001868,"INCLINATION":87.9032,"RA_OF_ASC_NODE":344.1842,"ARG_OF_PERICENTER":74.2927,"MEAN_ANOMALY":285.8409,"EPHEMERIS_TYPE":0,"CLASSIFICATION_TYPE":"U","NORAD_CAT_ID":49186,"ELEMENT_SET_NO":999,"REV_AT_EPOCH":21512,"BSTAR":0.00093596,"MEAN_MOTION_DOT":3.55e-6,"MEAN_MOTION_DDOT":0},{"OBJECT_NAME":"ONEWEB-0303","OBJECT_ID":"2021-083B","EPOCH":"2026-02-16T21:18:45.510336","MEAN_MOTION":13.18684026,"ECCENTRICITY":0.0001937,"INCLINATION":87.9237,"RA_OF_ASC_NODE":359.3407,"ARG_OF_PERICENTER":75.208,"MEAN_ANOMALY":284.9266,"EPHEMERIS_TYPE":0,"CLASSIFICATION_TYPE":"U","NORAD_CAT_ID":49187,"ELEMENT_SET_NO":999,"REV_AT_EPOCH":21412,"BSTAR":-0.00017236,"MEAN_MOTION_DOT":-5.5e-7,"MEAN_MOTION_DDOT":0},{"OBJECT_NAME":"ONEWEB-0306","OBJECT_ID":"2021-083C","EPOCH":"2026-02-16T21:04:30.158976","MEAN_MOTION":13.18685112,"ECCENTRICITY":0.0001868,"INCLINATION":87.9234,"RA_OF_ASC_NODE":359.3266,"ARG_OF_PERICENTER":87.3792,"MEAN_ANOMALY":272.7554,"EPHEMERIS_TYPE":0,"CLASSIFICATION_TYPE":"U","NORAD_CAT_ID":49188,"ELEMENT_SET_NO":999,"REV_AT_EPOCH":21416,"BSTAR":8.2732e-5,"MEAN_MOTION_DOT":4.6e-7,"MEAN_MOTION_DDOT":0},{"OBJECT_NAME":"ONEWEB-0307","OBJECT_ID":"2021-083D","EPOCH":"2026-02-16T21:00:17.909856","MEAN_MOTION":13.13471137,"ECCENTRICITY":0.0001831,"INCLINATION":87.9029,"RA_OF_ASC_NODE":344.1597,"ARG_OF_PERICENTER":78.0262,"MEAN_ANOMALY":282.1073,"EPHEMERIS_TYPE":0,"CLASSIFICATION_TYPE":"U","NORAD_CAT_ID":49189,"ELEMENT_SET_NO":999,"REV_AT_EPOCH":21513,"BSTAR":0.00059859,"MEAN_MOTION_DOT":2.31e-6,"MEAN_MOTION_DDOT":0}]
